[{"OBJECT_NAME":"STARLINK-35246","OBJECT_ID":"2025-211J","EPOCH":"2026-03-09T15:16:26.836608","MEAN_MOTION":15.05648322,"ECCENTRICITY":0.0001538,"INCLINATION":97.6025,"RA_OF_ASC_NODE":114.0098,"ARG_OF_PERICENTER":92.2986,"MEAN_ANOMALY":267.8417,"EPHEMERIS_TYPE":0,"CLASSIFICATION_TYPE":"U","NORAD_CAT_ID":65660,"ELEMENT_SET_NO":999,"REV_AT_EPOCH":2703,"BSTAR":8.1126e-5,"MEAN_MOTION_DOT":1.11e-5,"MEAN_MOTION_DDOT":0},{"OBJECT_NAME":"FENGYUN 1C DEB","OBJECT_ID":"1999-025CUF","EPOCH":"2026-03-09T01:34:38.628768","MEAN_MOTION":15.17132493,"ECCENTRICITY":0.01273829,"INCLINATION":98.8955,"RA_OF_ASC_NODE":293.2327,"ARG_OF_PERICENTER":89.1897,"MEAN_ANOMALY":272.3925,"EPHEMERIS_TYPE":0,"CLASSIFICATION_TYPE":"U","NORAD_CAT_ID":32185,"ELEMENT_SET_NO":999,"REV_AT_EPOCH":96318,"BSTAR":0.0036969643,"MEAN_MOTION_DOT":0.00091378,"MEAN_MOTION_DDOT":0}]
